{"version": 0.6, "generator": "Overpass API 0.7.62.5 1bd436f1", "osm3s": {"timestamp_osm_base": "2025-04-08T07:07:29Z", "copyright": "The data included in this document is from www.openstreetmap.org. The data is made available under ODbL."}, "elements": [{"type": "node", "id": 1702714538, "lat": 19.431354, "lon": -99.1336596}, {"type": "node", "id": 1702714539, "lat": 19.4315767, "lon": -99.134372}, {"type": "node", "id": 1702714545, "lat": 19.4318142, "lon": -99.1335956}, {"type": "node", "id": 1702714547, "lat": 19.43191, "lon": -99.1343233}, {"type": "node", "id": 1869866670, "lat": 19.4355165, "lon": -99.1327822}, {"type": "node", "id": 1983085869, "lat": 19.4311384, "lon": -99.132474, "tags": {"access": "private", "amenity": "parking_entrance", "level": "-1", "parking": "underground"}}, {"type": "node", "id": 2265907842, "lat": 19.4357975, "lon": -99.1327389}, {"type": "node", "id": 2265908628, "lat": 19.43143, "lon": -99.1311738}, {"type": "node", "id": 2265908629, "lat": 19.4307105, "lon": -99.1312699}, {"type": "node", "id": 2265908630, "lat": 19.4308215, "lon": -99.1322049}, {"type": "node", "id": 2265908631, "lat": 19.431541, "lon": -99.1321088}, {"type": "node", "id": 2265912438, "lat": 19.4315214, "lon": -99.1342305}, {"type": "node", "id": 2265912440, "lat": 19.4314028, "lon": -99.1342492}, {"type": "node", "id": 2265912537, "lat": 19.430791, "lon": -99.1340772}, {"type": "node", "id": 2265912538, "lat": 19.4308852, "lon": -99.1337175}, {"type": "node", "id": 2265912539, "lat": 19.4309301, "lon": -99.1340565}, {"type": "node", "id": 2265912540, "lat": 19.4307462, "lon": -99.1337382}, {"type": "node", "id": 2265970423, "lat": 19.4296609, "lon": -99.1362769}, {"type": "node", "id": 2267012590, "lat": 19.429991, "lon": -99.1362268}, {"type": "node", "id": 2267012591, "lat": 19.4296198, "lon": -99.13601}, {"type": "node", "id": 2267012592, "lat": 19.4299677, "lon": -99.1360607}, {"type": "node", "id": 2267012594, "lat": 19.4297712, "lon": -99.1360799}, {"type": "node", "id": 2267012595, "lat": 19.4297522, "lon": -99.1359941}, {"type": "node", "id": 2267013451, "lat": 19.4303789, "lon": -99.1359428}, {"type": "node", "id": 2267013454, "lat": 19.4297966, "lon": -99.1360652}, {"type": "node", "id": 2267013455, "lat": 19.4299623, "lon": -99.1360102}, {"type": "node", "id": 2267013457, "lat": 19.4299201, "lon": -99.1360653}, {"type": "node", "id": 2267013459, "lat": 19.429594, "lon": -99.1358323}, {"type": "node", "id": 2267013461, "lat": 19.4299468, "lon": -99.1360407}, {"type": "node", "id": 2267013464, "lat": 19.4303518, "lon": -99.1357299}, {"type": "node", "id": 2267013466, "lat": 19.4298316, "lon": -99.136074}, {"type": "node", "id": 2267013469, "lat": 19.4297726, "lon": -99.1360397}, {"type": "node", "id": 2409358341, "lat": 19.4313341, "lon": -99.1309816, "tags": {"addr:housenumber": "5", "addr:postcode": "06000", "addr:street": "Corregidora", "amenity": "fast_food", "brand": "Burger King", "brand:wikidata": "Q177054", "brand:wikipedia": "en:Burger King", "check_date": "2024-07-02", "check_date:opening_hours": "2024-07-02", "cuisine": "burger", "name": "Burger King", "opening_hours": "Mo-Su 08:00-21:00", "takeaway": "yes", "website": "https://www.burgerking.com.mx/restaurantes/corregidora-5f-centro-cuauhtemoc/?id=343"}}, {"type": "node", "id": 2418162576, "lat": 19.4340117, "lon": -99.1352095, "tags": {"amenity": "bank", "atm": "yes", "brand": "BBVA", "brand:wikidata": "Q806189", "brand:wikipedia": "en:Banco Bilbao Vizcaya Argentaria", "check_date": "2023-08-06", "name": "BBVA", "official_name": "Banco Bilbao Vizcaya Argentaria", "survey:date": "2023-05-06"}}, {"type": "node", "id": 2418219454, "lat": 19.4342829, "lon": -99.1353851, "tags": {"addr:city": "Ciudad de M\u00e9xico", "addr:housenumber": "52", "addr:street": "5 de Mayo", "amenity": "restaurant", "name": "El Popular", "opening_hours": "24/7", "source": "Survey", "wifi": "no"}}, {"type": "node", "id": 2812622953, "lat": 19.4350085, "lon": -99.1336808, "tags": {"amenity": "bicycle_rental", "brand": "Ecobici", "brand:wikidata": "Q5817067", "capacity": "11", "name": "Ecobici Rep\u00fablica de Guatemala / Monte de Piedad", "network": "Ecobici", "operator": "5M2-BKT", "operator:type": "private", "ref": "CE-089"}}, {"type": "node", "id": 2812623128, "lat": 19.4358323, "lon": -99.1329897}, {"type": "node", "id": 2812623129, "lat": 19.4350811, "lon": -99.1331072}, {"type": "node", "id": 2812623130, "lat": 19.4350395, "lon": -99.1328069}, {"type": "node", "id": 2812623805, "lat": 19.433776, "lon": -99.135286, "tags": {"amenity": "bicycle_rental", "brand": "Ecobici", "brand:wikidata": "Q5817067", "capacity": "14", "name": "Ecobici 2a Cerrada de 5 de Mayo / Palma", "network": "Ecobici", "operator": "5M2-BKT", "operator:type": "private", "ref": "CE-088"}}, {"type": "node", "id": 2812628977, "lat": 19.4314715, "lon": -99.1325569, "tags": {"amenity": "bicycle_rental", "brand": "Ecobici", "brand:wikidata": "Q5817067", "capacity": "27", "name": "Ecobici Jos\u00e9 Mar\u00eda Pino Su\u00e1rez / Corregidora", "network": "Ecobici", "operator": "5M2-BKT", "operator:type": "private", "ref": "CE-090"}}, {"type": "node", "id": 2812628978, "lat": 19.4306696, "lon": -99.1336994, "tags": {"amenity": "bicycle_rental", "bicycle_rental": "docking_station", "brand": "Ecobici", "brand:wikidata": "Q5817067", "capacity": "18", "name": "Ecobici 20 de Noviembre / Venustiano Carranza", "network": "Ecobici", "operator": "5M2-BKT", "operator:type": "private", "ref": "CE-095"}}, {"type": "node", "id": 3383901548, "lat": 19.4310882, "lon": -99.1308707, "tags": {"amenity": "parking"}}, {"type": "node", "id": 3649583733, "lat": 19.4313887, "lon": -99.1360442, "tags": {"addr:street": "Venustiano Carranza", "amenity": "atm"}}, {"type": "node", "id": 3659658215, "lat": 19.4347509, "lon": -99.1359636, "tags": {"addr:city": "Ciudad de M\u00e9xico", "addr:housenumber": "10", "addr:street": "Isabel la Catolica", "amenity": "restaurant", "cuisine": "taco", "name": "El Cuatro20", "source": "survey, website to confirm spelling of name"}}, {"type": "node", "id": 3750607660, "lat": 19.4310141, "lon": -99.1305179}, {"type": "node", "id": 3750607663, "lat": 19.4309002, "lon": -99.1305772}, {"type": "node", "id": 3750607668, "lat": 19.430937, "lon": -99.1308832}, {"type": "node", "id": 3750607671, "lat": 19.431443, "lon": -99.1310091}, {"type": "node", "id": 3750607672, "lat": 19.4309618, "lon": -99.1310895}, {"type": "node", "id": 3750607673, "lat": 19.4308953, "lon": -99.1305365}, {"type": "node", "id": 3750607674, "lat": 19.4312349, "lon": -99.1304832}, {"type": "node", "id": 3750607675, "lat": 19.4312494, "lon": -99.1305996}, {"type": "node", "id": 3750607676, "lat": 19.4313913, "lon": -99.1305797}, {"type": "node", "id": 3993793507, "lat": 19.4338158, "lon": -99.1353394, "tags": {"amenity": "restaurant", "brand": "Pizza Hut", "brand:wikidata": "Q191615", "brand:wikipedia": "en:Pizza Hut", "cuisine": "pizza", "name": "Pizza Hut"}}, {"type": "node", "id": 4156712495, "lat": 19.4333451, "lon": -99.1348861, "tags": {"amenity": "post_office", "brand": "DHL", "brand:wikidata": "Q489815", "brand:wikipedia": "en:DHL", "name": "DHL", "opening_hours": "\"Lunes a Viernes 10:30 am - 6:30 pm S\u00e1bados 10:00 am - 2:00 pm D\u00edas festivos cerrado\"", "operator": "DHL", "operator:type": "private", "operator:wikidata": "Q489815", "operator:wikipedia": "en:DHL"}}, {"type": "node", "id": 4156712497, "lat": 19.4319154, "lon": -99.1349765, "tags": {"amenity": "cafe", "brand": "Starbucks", "brand:wikidata": "Q37158", "brand:wikipedia": "en:Starbucks", "cuisine": "coffee_shop", "name": "Starbucks", "official_name": "Starbucks Coffee", "takeaway": "yes"}}, {"type": "node", "id": 4156725723, "lat": 19.4319909, "lon": -99.1344921, "tags": {"amenity": "bicycle_parking", "covered": "no"}}, {"type": "node", "id": 4166560190, "lat": 19.4320631, "lon": -99.1350318, "tags": {"amenity": "fast_food", "brand": "Subway", "brand:wikidata": "Q244457", "brand:wikipedia": "en:Subway (restaurant)", "cuisine": "sandwich", "name": "Subway", "takeaway": "yes"}}, {"type": "node", "id": 4332836491, "lat": 19.4325815, "lon": -99.1352045, "tags": {"addr:city": "Ciudad de M\u00e9xico", "addr:housenumber": "32", "addr:postcode": "06000", "addr:street": "Palma", "amenity": "restaurant", "cuisine": "mexican", "name": "El Rey del Pavo", "opening_hours": "Mo-Sa 11:00-18:45", "phone": "55182810", "website": "https://elreydelpavo.com.mx/"}}, {"type": "node", "id": 4345144989, "lat": 19.4334977, "lon": -99.1358757, "tags": {"amenity": "restaurant", "brand": "Vips", "brand:wikidata": "Q48783378", "brand:wikipedia": "es:Vips", "cuisine": "mexican", "name": "Vips"}}, {"type": "node", "id": 4396992793, "lat": 19.4330736, "lon": -99.1344525, "tags": {"amenity": "fast_food", "name": "Tacos de Canasta Los Especiales", "name:es": "Tacos de Canasta Los Especiales"}}, {"type": "node", "id": 4476066453, "lat": 19.4349776, "lon": -99.133741, "tags": {"amenity": "bicycle_parking", "bicycle_parking": "staple", "capacity": "3"}}, {"type": "node", "id": 4567911691, "lat": 19.4343005, "lon": -99.1357777, "tags": {"addr:city": "Ciudad de M\u00e9xico", "addr:housenumber": "5", "addr:postcode": "06000", "addr:street": "Calle 5 de Mayo", "amenity": "restaurant", "cuisine": "mexican", "name": "Arandas Taquer\u00eda", "name:es": "Taqueria Arandas", "payment:debit_cards": "yes"}}, {"type": "node", "id": 4594598745, "lat": 19.4336275, "lon": -99.1352776, "tags": {"addr:city": "Ciudad de M\u00e9xico", "addr:housenumber": "23", "addr:street": "Palma", "amenity": "restaurant", "cuisine": "mexican", "leaf_type": "broadleaved", "name": "El Cardenal", "natural": "tree", "phone": "+52 55 5521 3080", "smoking": "no", "website": "https://www.restauranteelcardenal.com/", "wheelchair": "yes"}}, {"type": "node", "id": 4596567517, "lat": 19.4326301, "lon": -99.1308969}, {"type": "node", "id": 4596567518, "lat": 19.4327361, "lon": -99.1308843}, {"type": "node", "id": 4718716792, "lat": 19.4331227, "lon": -99.1345777, "tags": {"amenity": "cafe"}}, {"type": "node", "id": 5062705276, "lat": 19.4337337, "lon": -99.130929, "tags": {"amenity": "bicycle_rental", "brand": "Ecobici", "brand:wikidata": "Q5817067", "capacity": "22", "name": "Ecobici Lic. Verdad / Moneda", "network": "Ecobici", "operator": "5M2-BKT", "operator:type": "private", "ref": "CE-094"}}, {"type": "node", "id": 5117220124, "lat": 19.4306604, "lon": -99.1318595}, {"type": "node", "id": 5117220125, "lat": 19.4306686, "lon": -99.1319315}, {"type": "node", "id": 5117220206, "lat": 19.4298461, "lon": -99.1304452}, {"type": "node", "id": 5117651155, "lat": 19.429963, "lon": -99.1357824}, {"type": "node", "id": 5117651158, "lat": 19.4303041, "lon": -99.1357363}, {"type": "node", "id": 5117762014, "lat": 19.4309164, "lon": -99.1307253}, {"type": "node", "id": 5117940774, "lat": 19.43551, "lon": -99.1327344}, {"type": "node", "id": 5117969384, "lat": 19.4307642, "lon": -99.1338745}, {"type": "node", "id": 5329453821, "lat": 19.4332544, "lon": -99.1356127, "tags": {"addr:housenumber": "57", "addr:street": "Francisco I. Madero", "amenity": "bar", "name": "Hilaria Gastrobar", "phone": "5555121559"}}, {"type": "node", "id": 5543981221, "lat": 19.4318972, "lon": -99.1348321, "tags": {"amenity": "restaurant", "cuisine": "indian", "diet:vegetarian": "yes", "name": "India Town"}}, {"type": "node", "id": 5618803121, "lat": 19.4340038, "lon": -99.1355046, "tags": {"addr:city": "Ciudad de M\u00e9xico", "addr:housenumber": "49", "addr:postcode": "06000", "addr:street": "5 de Mayo", "amenity": "bar", "name": "Pata Negra"}}, {"type": "node", "id": 5842051975, "lat": 19.430924, "lon": -99.1318187}, {"type": "node", "id": 5842051976, "lat": 19.4310404, "lon": -99.1318005}, {"type": "node", "id": 5842051977, "lat": 19.4310688, "lon": -99.1320043}, {"type": "node", "id": 5842051978, "lat": 19.4309524, "lon": -99.1320225}, {"type": "node", "id": 5842051979, "lat": 19.4312622, "lon": -99.1317754}, {"type": "node", "id": 5842051980, "lat": 19.4313518, "lon": -99.1317621}, {"type": "node", "id": 5842051981, "lat": 19.4313787, "lon": -99.1319661}, {"type": "node", "id": 5842051982, "lat": 19.4312891, "lon": -99.1319793}, {"type": "node", "id": 5842051983, "lat": 19.4313357, "lon": -99.1315808}, {"type": "node", "id": 5842051984, "lat": 19.431309, "lon": -99.1313623}, {"type": "node", "id": 5842052285, "lat": 19.4311534, "lon": -99.1313836}, {"type": "node", "id": 5842052286, "lat": 19.4311801, "lon": -99.1316022}, {"type": "node", "id": 5842052287, "lat": 19.4310631, "lon": -99.1316132}, {"type": "node", "id": 5842052288, "lat": 19.4310365, "lon": -99.1313946}, {"type": "node", "id": 5842052289, "lat": 19.4308809, "lon": -99.131416}, {"type": "node", "id": 5842052290, "lat": 19.4309075, "lon": -99.1316345}, {"type": "node", "id": 6202399359, "lat": 19.4346917, "lon": -99.1320613, "tags": {"amenity": "toilets"}}, {"type": "node", "id": 6262938685, "lat": 19.4324105, "lon": -99.1343657, "tags": {"amenity": "restaurant", "name": "Primer Cuadro"}}, {"type": "node", "id": 6266754085, "lat": 19.4337221, "lon": -99.1342809, "tags": {"amenity": "fast_food", "brand": "McDonald's", "brand:wikidata": "Q38076", "brand:wikipedia": "en:McDonald's", "cuisine": "burger", "name": "McDonald's", "takeaway": "yes"}}, {"type": "node", "id": 6546248886, "lat": 19.4338922, "lon": -99.1343417, "tags": {"amenity": "restaurant", "name": "La Torta Brava"}}, {"type": "node", "id": 6902911385, "lat": 19.4345388, "lon": -99.1360091, "tags": {"addr:housenumber": "16", "addr:street": "Calle Isabel la Cat\u00f3lica", "amenity": "fast_food", "name": "Taquer\u00eda Tlaquepaque"}}, {"type": "node", "id": 6935391086, "lat": 19.4338636, "lon": -99.1342446, "tags": {"amenity": "bar", "name": "El Balc\u00f3n del Z\u00f3calo", "name:en": "El Balcon del Zocalo"}}, {"type": "node", "id": 6935458785, "lat": 19.4313042, "lon": -99.1349794, "tags": {"addr:postcode": "06000", "amenity": "fast_food", "name": "Tacos Los Cocuyos", "name:en": "Tacos Los Cocuyos"}}, {"type": "node", "id": 7134437986, "lat": 19.4350186, "lon": -99.1324297, "tags": {"amenity": "restaurant", "name": "casa de las sirenas"}}, {"type": "node", "id": 7212409130, "lat": 19.4301096, "lon": -99.1345531, "tags": {"amenity": "restaurant", "cuisine": "seafood", "name": "Fisher's"}}, {"type": "node", "id": 7213002987, "lat": 19.4323899, "lon": -99.1344078, "tags": {"amenity": "bar", "name": "Cocina central 1812"}}, {"type": "node", "id": 7243385272, "lat": 19.4319694, "lon": -99.1337323, "tags": {"amenity": "drinking_water", "fee": "no", "wheelchair": "yes"}}, {"type": "node", "id": 7715974485, "lat": 19.4335249, "lon": -99.1356727, "tags": {"amenity": "restaurant", "diet:vegetarian": "only", "name": "Los Vegetarianos", "opening_hours": "Mo-Su 08:00-20:00"}}, {"type": "node", "id": 8015063746, "lat": 19.4350497, "lon": -99.1337183, "tags": {"amenity": "charging_station", "motorcar": "no", "operator": "Servicio de Transportes El\u00e9ctricos de la Ciudad de M\u00e9xico", "socket:type1": "yes"}}, {"type": "node", "id": 8015116477, "lat": 19.4350315, "lon": -99.1335668, "tags": {"amenity": "charging_station", "motorcar": "no", "operator": "Servicio de Transportes El\u00e9ctricos de la Ciudad de M\u00e9xico", "socket:type1": "yes"}}, {"type": "node", "id": 8034160169, "lat": 19.4338134, "lon": -99.133381}, {"type": "node", "id": 8034160170, "lat": 19.4338146, "lon": -99.1333903}, {"type": "node", "id": 8034187660, "lat": 19.4337838, "lon": -99.1329689}, {"type": "node", "id": 8034187670, "lat": 19.433837, "lon": -99.1328454}, {"type": "node", "id": 8034187676, "lat": 19.4337467, "lon": -99.1328579}, {"type": "node", "id": 8034187677, "lat": 19.4337608, "lon": -99.1329721}, {"type": "node", "id": 8034187679, "lat": 19.4338211, "lon": -99.1334412}, {"type": "node", "id": 8034246393, "lat": 19.4338051, "lon": -99.1329932}, {"type": "node", "id": 8034246394, "lat": 19.4338105, "lon": -99.133037}, {"type": "node", "id": 8034246395, "lat": 19.4348731, "lon": -99.1331698}, {"type": "node", "id": 8034246396, "lat": 19.4349086, "lon": -99.1331522}, {"type": "node", "id": 8034246397, "lat": 19.434917, "lon": -99.133151}, {"type": "node", "id": 8034246398, "lat": 19.4349178, "lon": -99.1331573}, {"type": "node", "id": 8034246399, "lat": 19.4349323, "lon": -99.1331552}, {"type": "node", "id": 8034246400, "lat": 19.4350135, "lon": -99.133192}, {"type": "node", "id": 8034246401, "lat": 19.4350253, "lon": -99.1332843}, {"type": "node", "id": 8034246402, "lat": 19.4344389, "lon": -99.1333304}, {"type": "node", "id": 8034246404, "lat": 19.4337921, "lon": -99.133035}, {"type": "node", "id": 8034246497, "lat": 19.4343692, "lon": -99.1327933}, {"type": "node", "id": 8034246498, "lat": 19.4345702, "lon": -99.1327451}, {"type": "node", "id": 8034246499, "lat": 19.4345808, "lon": -99.1327352}, {"type": "node", "id": 8034246502, "lat": 19.4348534, "lon": -99.1329073}, {"type": "node", "id": 8034246504, "lat": 19.4338004, "lon": -99.1330384}, {"type": "node", "id": 8034246505, "lat": 19.4337998, "lon": -99.1330339}, {"type": "node", "id": 8034246506, "lat": 19.4348626, "lon": -99.1330833}, {"type": "node", "id": 8034246508, "lat": 19.4349886, "lon": -99.1331405}, {"type": "node", "id": 8034246509, "lat": 19.4349981, "lon": -99.1331391}, {"type": "node", "id": 8034246510, "lat": 19.4349988, "lon": -99.1331447}, {"type": "node", "id": 8034246511, "lat": 19.4350085, "lon": -99.1331559}, {"type": "node", "id": 8034246512, "lat": 19.4350078, "lon": -99.1332059}, {"type": "node", "id": 8034246513, "lat": 19.4350164, "lon": -99.1332719}, {"type": "node", "id": 8034246514, "lat": 19.4350177, "lon": -99.1332853}, {"type": "node", "id": 8034246517, "lat": 19.4339959, "lon": -99.1334161}, {"type": "node", "id": 8034246524, "lat": 19.4338068, "lon": -99.1333288}, {"type": "node", "id": 8034246525, "lat": 19.4338214, "lon": -99.1332608}, {"type": "node", "id": 8034246526, "lat": 19.4337978, "lon": -99.133234}, {"type": "node", "id": 8034246527, "lat": 19.4337956, "lon": -99.1332167}, {"type": "node", "id": 8034246528, "lat": 19.4338157, "lon": -99.1332138}, {"type": "node", "id": 8034246530, "lat": 19.4337983, "lon": -99.1330825}, {"type": "node", "id": 8034246531, "lat": 19.4337776, "lon": -99.1330854}, {"type": "node", "id": 8034246532, "lat": 19.4337753, "lon": -99.1330665}, {"type": "node", "id": 8034246533, "lat": 19.4337872, "lon": -99.1329957}, {"type": "node", "id": 8034246535, "lat": 19.4337538, "lon": -99.1329154}, {"type": "node", "id": 8034246546, "lat": 19.4337528, "lon": -99.1329068}, {"type": "node", "id": 8034246587, "lat": 19.4343259, "lon": -99.1327989}, {"type": "node", "id": 8034246588, "lat": 19.4344931, "lon": -99.1327767}, {"type": "node", "id": 8034246589, "lat": 19.4344919, "lon": -99.1327673}, {"type": "node", "id": 8034246590, "lat": 19.4345716, "lon": -99.1327566}, {"type": "node", "id": 8034246591, "lat": 19.4345818, "lon": -99.1327435}, {"type": "node", "id": 8034246592, "lat": 19.4346916, "lon": -99.1327208}, {"type": "node", "id": 8034246593, "lat": 19.4348397, "lon": -99.1329093}, {"type": "node", "id": 8034246594, "lat": 19.4338039, "lon": -99.1331279}, {"type": "node", "id": 8034246595, "lat": 19.4348766, "lon": -99.1330813}, {"type": "node", "id": 8034246596, "lat": 19.4348884, "lon": -99.1331676}, {"type": "node", "id": 8034246597, "lat": 19.4349013, "lon": -99.1331596}, {"type": "node", "id": 8034246598, "lat": 19.4349094, "lon": -99.1331584}, {"type": "node", "id": 8034246599, "lat": 19.4349895, "lon": -99.1331471}, {"type": "node", "id": 8034246600, "lat": 19.435007, "lon": -99.1331436}, {"type": "node", "id": 8034246601, "lat": 19.4350151, "lon": -99.1332049}, {"type": "node", "id": 8034246602, "lat": 19.4350107, "lon": -99.1332291}, {"type": "node", "id": 8034246603, "lat": 19.4350179, "lon": -99.1332281}, {"type": "node", "id": 8034246604, "lat": 19.4350197, "lon": -99.1332431}, {"type": "node", "id": 8034246605, "lat": 19.4350236, "lon": -99.1333322}, {"type": "node", "id": 8034246606, "lat": 19.435028, "lon": -99.1333315}, {"type": "node", "id": 8034246609, "lat": 19.4338207, "lon": -99.1334384}, {"type": "node", "id": 8034246612, "lat": 19.4338177, "lon": -99.1332311}, {"type": "node", "id": 8034246613, "lat": 19.4337956, "lon": -99.1330637}, {"type": "node", "id": 8034246687, "lat": 19.4349021, "lon": -99.1331656}, {"type": "node", "id": 8034246688, "lat": 19.4350129, "lon": -99.133244}, {"type": "node", "id": 8034246689, "lat": 19.4350236, "lon": -99.1332709}, {"type": "node", "id": 8034246692, "lat": 19.4338285, "lon": -99.1333257}, {"type": "node", "id": 8034246693, "lat": 19.4338037, "lon": -99.1331265}, {"type": "node", "id": 8034246886, "lat": 19.4343938, "lon": -99.1333369}, {"type": "node", "id": 8034246887, "lat": 19.4338252, "lon": -99.1333}, {"type": "node", "id": 8034259486, "lat": 19.4339203, "lon": -99.133427}, {"type": "node", "id": 8034266585, "lat": 19.4349159, "lon": -99.1330368}, {"type": "node", "id": 8034266685, "lat": 19.4348754, "lon": -99.1330722}, {"type": "node", "id": 8034277594, "lat": 19.4343705, "lon": -99.1328046}, {"type": "node", "id": 8034277595, "lat": 19.4346931, "lon": -99.132734}, {"type": "node", "id": 8034277596, "lat": 19.4348123, "lon": -99.1327045}, {"type": "node", "id": 8034277597, "lat": 19.4348339, "lon": -99.1328826}, {"type": "node", "id": 8034277598, "lat": 19.4348545, "lon": -99.1329165}, {"type": "node", "id": 8034277599, "lat": 19.4349109, "lon": -99.1329294}, {"type": "node", "id": 8034277600, "lat": 19.4348586, "lon": -99.1331475}, {"type": "node", "id": 8034277601, "lat": 19.4350401, "lon": -99.1334273}, {"type": "node", "id": 8034277602, "lat": 19.4341907, "lon": -99.1334406}, {"type": "node", "id": 8034277603, "lat": 19.433817, "lon": -99.1331676}, {"type": "node", "id": 8034277604, "lat": 19.4338274, "lon": -99.13317}, {"type": "node", "id": 8034277605, "lat": 19.4338121, "lon": -99.1331268}, {"type": "node", "id": 8034277695, "lat": 19.4346577, "lon": -99.1327248}, {"type": "node", "id": 8034277696, "lat": 19.4346593, "lon": -99.1327386}, {"type": "node", "id": 8034277697, "lat": 19.4348267, "lon": -99.1326851}, {"type": "node", "id": 8034277698, "lat": 19.4348283, "lon": -99.1328236}, {"type": "node", "id": 8034277699, "lat": 19.4348346, "lon": -99.1328886}, {"type": "node", "id": 8034277700, "lat": 19.4348371, "lon": -99.1328882}, {"type": "node", "id": 8034277701, "lat": 19.4349157, "lon": -99.1329563}, {"type": "node", "id": 8034277702, "lat": 19.434863, "lon": -99.1331056}, {"type": "node", "id": 8034277703, "lat": 19.434868, "lon": -99.1331508}, {"type": "node", "id": 8034277704, "lat": 19.4345829, "lon": -99.1334217}, {"type": "node", "id": 8034277706, "lat": 19.4338445, "lon": -99.1332973}, {"type": "node", "id": 8034279605, "lat": 19.4348298, "lon": -99.1327139}, {"type": "node", "id": 8034279606, "lat": 19.4348288, "lon": -99.1328482}, {"type": "node", "id": 8034279607, "lat": 19.4348196, "lon": -99.1328496}, {"type": "node", "id": 8034279608, "lat": 19.4345822, "lon": -99.1334926}, {"type": "node", "id": 8034279609, "lat": 19.4345689, "lon": -99.1333887}, {"type": "node", "id": 8034279610, "lat": 19.4345593, "lon": -99.1333131}, {"type": "node", "id": 8034279611, "lat": 19.4338294, "lon": -99.1332559}, {"type": "node", "id": 8034279612, "lat": 19.43381, "lon": -99.1331686}, {"type": "node", "id": 8034279613, "lat": 19.4338174, "lon": -99.1331714}, {"type": "node", "id": 8034279614, "lat": 19.4338117, "lon": -99.1331234}, {"type": "node", "id": 8034279688, "lat": 19.4348239, "lon": -99.132884}, {"type": "node", "id": 8034279689, "lat": 19.4349035, "lon": -99.1329396}, {"type": "node", "id": 8034279690, "lat": 19.4349251, "lon": -99.1330441}, {"type": "node", "id": 8034279691, "lat": 19.4348655, "lon": -99.1331052}, {"type": "node", "id": 8034279797, "lat": 19.4343273, "lon": -99.1328104}, {"type": "node", "id": 8034279798, "lat": 19.4348435, "lon": -99.1328214}, {"type": "node", "id": 8034279799, "lat": 19.4348306, "lon": -99.1328417}, {"type": "node", "id": 8034279800, "lat": 19.4348281, "lon": -99.1328421}, {"type": "node", "id": 8034279801, "lat": 19.4349262, "lon": -99.132942}, {"type": "node", "id": 8034279802, "lat": 19.4349157, "lon": -99.1330368}, {"type": "node", "id": 8034279803, "lat": 19.4348542, "lon": -99.1331135}, {"type": "node", "id": 8034279804, "lat": 19.4348674, "lon": -99.1331462}, {"type": "node", "id": 8034279805, "lat": 19.4348706, "lon": -99.1331504}, {"type": "node", "id": 8034279806, "lat": 19.4345734, "lon": -99.1334231}, {"type": "node", "id": 8034279807, "lat": 19.4345786, "lon": -99.1333873}, {"type": "node", "id": 8034279808, "lat": 19.433839, "lon": -99.1332545}, {"type": "node", "id": 8034279809, "lat": 19.43383, "lon": -99.1332605}, {"type": "node", "id": 8034279810, "lat": 19.4338215, "lon": -99.1332617}, {"type": "node", "id": 8034279811, "lat": 19.4338214, "lon": -99.1331221}, {"type": "node", "id": 8034279890, "lat": 19.4348418, "lon": -99.1326977}, {"type": "node", "id": 8034279891, "lat": 19.4349229, "lon": -99.1330166}, {"type": "node", "id": 8034280086, "lat": 19.4349367, "lon": -99.1330276}, {"type": "node", "id": 8034280087, "lat": 19.4348639, "lon": -99.1331121}, {"type": "node", "id": 8034309295, "lat": 19.4349759, "lon": -99.1331491}, {"type": "node", "id": 8034426632, "lat": 19.4343956, "lon": -99.1333366}, {"type": "node", "id": 8034514087, "lat": 19.4339277, "lon": -99.1328578}, {"type": "node", "id": 8034514194, "lat": 19.4339509, "lon": -99.1328546}, {"type": "node", "id": 8034783185, "lat": 19.4346765, "lon": -99.1327363, "tags": {"door": "yes", "entrance": "service", "level": "1", "width": "4"}}, {"type": "node", "id": 8034783385, "lat": 19.4343484, "lon": -99.1328076, "tags": {"access": "no", "door": "yes", "entrance": "service", "level": "1", "width": "5"}}, {"type": "node", "id": 8038203693, "lat": 19.4349249, "lon": -99.1332866}, {"type": "node", "id": 8038219314, "lat": 19.4349538, "lon": -99.1331522, "tags": {"door": "hinged", "entrance": "main", "level": "1", "width": "5"}}, {"type": "node", "id": 8038219317, "lat": 19.4349022, "lon": -99.1332751}, {"type": "node", "id": 8038219318, "lat": 19.4349187, "lon": -99.1332875}, {"type": "node", "id": 8038219320, "lat": 19.4349211, "lon": -99.1332571}, {"type": "node", "id": 8038219321, "lat": 19.4349146, "lon": -99.133258}, {"type": "node", "id": 8038219323, "lat": 19.4349199, "lon": -99.1332455}, {"type": "node", "id": 8038219324, "lat": 19.4349166, "lon": -99.1332202}, {"type": "node", "id": 8038219325, "lat": 19.434908, "lon": -99.133209}, {"type": "node", "id": 8038219327, "lat": 19.4349109, "lon": -99.1331707}, {"type": "node", "id": 8038219328, "lat": 19.4349029, "lon": -99.1331719}, {"type": "node", "id": 8038219340, "lat": 19.4349176, "lon": -99.1332867}, {"type": "node", "id": 8038219499, "lat": 19.4349131, "lon": -99.1332465}, {"type": "node", "id": 8038219500, "lat": 19.4349096, "lon": -99.1332212}, {"type": "node", "id": 8038219501, "lat": 19.435002, "lon": -99.1331568}, {"type": "node", "id": 8038219502, "lat": 19.4350065, "lon": -99.133193}, {"type": "node", "id": 8038219888, "lat": 19.4349157, "lon": -99.1332079}, {"type": "node", "id": 8038260986, "lat": 19.4341696, "lon": -99.1328195}, {"type": "node", "id": 8038260993, "lat": 19.4339082, "lon": -99.1328551}, {"type": "node", "id": 8038260994, "lat": 19.4338111, "lon": -99.1328489}, {"type": "node", "id": 8038260995, "lat": 19.4338192, "lon": -99.1328478}, {"type": "node", "id": 8038261093, "lat": 19.4341186, "lon": -99.1328264}, {"type": "node", "id": 8038261097, "lat": 19.4340316, "lon": -99.1328393}, {"type": "node", "id": 8038261098, "lat": 19.4340547, "lon": -99.1328396}, {"type": "node", "id": 8038261103, "lat": 19.4339036, "lon": -99.1328476}, {"type": "node", "id": 8038261104, "lat": 19.4339072, "lon": -99.1328471}, {"type": "node", "id": 8038261105, "lat": 19.4339234, "lon": -99.132853}, {"type": "node", "id": 8038261106, "lat": 19.4337678, "lon": -99.132855}, {"type": "node", "id": 8038272988, "lat": 19.4340543, "lon": -99.1328362}, {"type": "node", "id": 8038273087, "lat": 19.4340957, "lon": -99.1328295}, {"type": "node", "id": 8038273090, "lat": 19.4340757, "lon": -99.1328367}, {"type": "node", "id": 8038273091, "lat": 19.4340065, "lon": -99.1328388}, {"type": "node", "id": 8038273101, "lat": 19.4338582, "lon": -99.1328425}, {"type": "node", "id": 8038273104, "lat": 19.433924, "lon": -99.1328583}, {"type": "node", "id": 8038273106, "lat": 19.4339552, "lon": -99.1328457}, {"type": "node", "id": 8038273285, "lat": 19.4340752, "lon": -99.1328323}, {"type": "node", "id": 8038273486, "lat": 19.4339023, "lon": -99.1328366}, {"type": "node", "id": 8038282985, "lat": 19.4340311, "lon": -99.1328355}, {"type": "node", "id": 8038351454, "lat": 19.4341756, "lon": -99.1328187}, {"type": "node", "id": 8038351455, "lat": 19.4341051, "lon": -99.1328282}, {"type": "node", "id": 8038351456, "lat": 19.4339562, "lon": -99.1328539}, {"type": "node", "id": 8038417202, "lat": 19.4341052, "lon": -99.1328282}, {"type": "node", "id": 8038417203, "lat": 19.4338193, "lon": -99.1328478}, {"type": "node", "id": 8038489786, "lat": 19.4340792, "lon": -99.1324242, "tags": {"amenity": "table", "level": "0"}}, {"type": "node", "id": 8038818689, "lat": 19.4338109, "lon": -99.132849}, {"type": "node", "id": 8038819386, "lat": 19.4338191, "lon": -99.1328477}, {"type": "node", "id": 8041155085, "lat": 19.430222, "lon": -99.1323792, "tags": {"amenity": "restaurant", "name": "Los Tacos"}}, {"type": "node", "id": 8041534875, "lat": 19.4339385, "lon": -99.1328563, "tags": {"access": "no", "door": "yes", "entrance": "service", "level": "1", "name": "Entrada al Sagrario Metropolitano", "width": "5"}}, {"type": "node", "id": 8042581390, "lat": 19.4350315, "lon": -99.1335668, "tags": {"amenity": "charging_station", "level": "1", "motorcar": "no", "operator": "Servicio de Transportes El\u00e9ctricos de la Ciudad de M\u00e9xico", "socket:type1": "yes"}}, {"type": "node", "id": 8144945329, "lat": 19.4338111, "lon": -99.132849}, {"type": "node", "id": 8663618918, "lat": 19.4318795, "lon": -99.1347231, "tags": {"addr:housenumber": "81", "addr:postcode": "06000", "addr:street": "16 de Septiembre", "amenity": "restaurant", "brand": "Vips", "brand:wikidata": "Q48783378", "brand:wikipedia": "es:Vips", "cuisine": "mexican", "name": "Vips", "opening_hours": "Mo-Su 08:00-20:00", "wheelchair": "yes"}}, {"type": "node", "id": 8663619717, "lat": 19.4328134, "lon": -99.135374, "tags": {"addr:housenumber": "349", "addr:postcode": "06000", "addr:street": "Calle Palma", "alt_name": "Kentucky Fried Chicken", "amenity": "fast_food", "brand": "KFC", "brand:wikidata": "Q524757", "cuisine": "chicken", "name": "KFC", "opening_hours": "Mo-Su 10:00-22:00", "takeaway": "yes"}}, {"type": "node", "id": 8677141617, "lat": 19.4310808, "lon": -99.1352547, "tags": {"addr:housenumber": "73", "addr:postcode": "06000", "addr:street": "Calle Venustiano Carranza", "amenity": "restaurant", "cuisine": "mexican", "name": "Sanborns", "name:en": "Sanborns Condes de Xala", "name:es": "Sanborns Condes de Xala", "opening_hours": "Mo-Su 08:00-19:00"}}, {"type": "node", "id": 8677152117, "lat": 19.4313457, "lon": -99.135397, "tags": {"addr:street": "Calle Palma", "amenity": "restaurant", "cuisine": "mexican", "name": "La P", "name:en": "La Parroquia de Veracruz", "name:es": "La Parroquia de Veracruz", "opening_hours": "Mo-Fr 07:00-22:00; Sa 08:00-23:00; Su 08:00-22:00"}}, {"type": "node", "id": 9048766696, "lat": 19.4303235, "lon": -99.1319112}, {"type": "node", "id": 9048766697, "lat": 19.4303352, "lon": -99.1319811}, {"type": "node", "id": 9048766698, "lat": 19.4299191, "lon": -99.1309145}, {"type": "node", "id": 9048766699, "lat": 19.4297973, "lon": -99.1309381}, {"type": "node", "id": 9048766700, "lat": 19.4297189, "lon": -99.130468}, {"type": "node", "id": 9651137014, "lat": 19.4338192, "lon": -99.1332431}, {"type": "node", "id": 9651137015, "lat": 19.4337943, "lon": -99.1330527}, {"type": "node", "id": 9651137016, "lat": 19.4344288, "lon": -99.1327853}, {"type": "node", "id": 9651141828, "lat": 19.4338831, "lon": -99.1328392}, {"type": "node", "id": 9651141829, "lat": 19.4340379, "lon": -99.1328384}, {"type": "node", "id": 9651229327, "lat": 19.4338537, "lon": -99.1328431}, {"type": "node", "id": 9651233317, "lat": 19.4342759, "lon": -99.1328055}, {"type": "node", "id": 9651233318, "lat": 19.4343379, "lon": -99.1333449}, {"type": "node", "id": 9651233319, "lat": 19.4345005, "lon": -99.1333215}, {"type": "node", "id": 9651233320, "lat": 19.4342696, "lon": -99.1328063}, {"type": "node", "id": 9652996323, "lat": 19.4331244, "lon": -99.1346095, "tags": {"amenity": "toilets"}}, {"type": "node", "id": 10136547973, "lat": 19.4301181, "lon": -99.1332824, "tags": {"amenity": "restaurant", "name": "El Saz\u00f3n"}}, {"type": "node", "id": 10709967366, "lat": 19.4326932, "lon": -99.130478}, {"type": "node", "id": 10709967367, "lat": 19.4325872, "lon": -99.1304906}, {"type": "node", "id": 10822894603, "lat": 19.4296435, "lon": -99.1332434}, {"type": "node", "id": 10822894604, "lat": 19.4299992, "lon": -99.1331862}, {"type": "node", "id": 10822915405, "lat": 19.4295037, "lon": -99.1331367}, {"type": "node", "id": 10822915406, "lat": 19.4295279, "lon": -99.133338}, {"type": "node", "id": 10822915407, "lat": 19.4294938, "lon": -99.1333403}, {"type": "node", "id": 10822915408, "lat": 19.429529, "lon": -99.133617}, {"type": "node", "id": 10822915409, "lat": 19.4300451, "lon": -99.1335548}, {"type": "node", "id": 10822915410, "lat": 19.4296243, "lon": -99.1331175}, {"type": "node", "id": 10822915414, "lat": 19.4295035, "lon": -99.1334165}, {"type": "node", "id": 10823040793, "lat": 19.4301285, "lon": -99.1333178, "tags": {"amenity": "atm", "operator": "Santander"}}, {"type": "node", "id": 10865710908, "lat": 19.4349912, "lon": -99.1359427}, {"type": "node", "id": 10865710909, "lat": 19.4348935, "lon": -99.135956}, {"type": "node", "id": 10865710910, "lat": 19.4348842, "lon": -99.1358797}, {"type": "node", "id": 10865710911, "lat": 19.4348462, "lon": -99.1358849}, {"type": "node", "id": 10865710912, "lat": 19.4348396, "lon": -99.1358304}, {"type": "node", "id": 10865710913, "lat": 19.4348163, "lon": -99.1358336}, {"type": "node", "id": 10865710914, "lat": 19.4348018, "lon": -99.1357134}, {"type": "node", "id": 10865710915, "lat": 19.4346211, "lon": -99.1357373}, {"type": "node", "id": 10865710916, "lat": 19.4345999, "lon": -99.1355624}, {"type": "node", "id": 10865710917, "lat": 19.4349741, "lon": -99.1355156}, {"type": "node", "id": 10865710918, "lat": 19.4349938, "lon": -99.1356545}, {"type": "node", "id": 10865710919, "lat": 19.4349565, "lon": -99.1356565}, {"type": "node", "id": 10865710920, "lat": 19.434296, "lon": -99.1355022, "tags": {"addr:city": "Ciudad de M\u00e9xico", "addr:country": "MX", "addr:housenumber": "52", "addr:postcode": "06000", "addr:street": "Avenida 5 de Mayo", "amenity": "cafe", "check_date": "2023-08-06", "cuisine": "coffee_shop;mexican", "level": "0", "name": "Cafe El Popular", "opening_hours": "24/7", "outdoor_seating": "yes", "payment:cards": "no", "payment:cash": "yes", "payment:credit_cards": "no", "payment:debit_cards": "no", "phone": "55186081", "wheelchair": "no"}}, {"type": "node", "id": 10865710921, "lat": 19.4346352, "lon": -99.1351341, "tags": {"amenity": "restaurant", "name": "La Monta\u00f1esa", "start_date": "1945"}}, {"type": "node", "id": 10865710927, "lat": 19.4345031, "lon": -99.1354984, "tags": {"amenity": "restaurant", "name": "Buffete Chino Hui"}}, {"type": "node", "id": 10865710928, "lat": 19.4347695, "lon": -99.1355124, "tags": {"amenity": "fast_food", "fast_food": "cafeteria"}}, {"type": "node", "id": 10865710929, "lat": 19.4347673, "lon": -99.135461, "tags": {"amenity": "fast_food", "fast_food": "cafeteria"}}, {"type": "node", "id": 10865710930, "lat": 19.4347651, "lon": -99.1354166, "tags": {"amenity": "fast_food", "fast_food": "cafeteria"}}, {"type": "node", "id": 10865710931, "lat": 19.4347837, "lon": -99.1355367}, {"type": "node", "id": 10865710932, "lat": 19.4347849, "lon": -99.135545}, {"type": "node", "id": 10865710933, "lat": 19.4346721, "lon": -99.135475, "tags": {"amenity": "fast_food", "fast_food": "cafeteria"}}, {"type": "node", "id": 10865710934, "lat": 19.4346649, "lon": -99.1353425, "tags": {"amenity": "fast_food", "fast_food": "cafeteria"}}, {"type": "node", "id": 10865711009, "lat": 19.4346948, "lon": -99.1357279}, {"type": "node", "id": 10884154704, "lat": 19.4315263, "lon": -99.1339887, "tags": {"addr:city": "Ciudad de M\u00e9xico", "addr:housenumber": "2", "addr:neighbourhood": "Colonia Centro", "addr:postcode": "06000", "addr:street": "Plaza de la Constituci\u00f3n", "alt_name": "La Carbonera", "amenity": "library", "books": "antiquarian", "check_date": "2019-04-23", "level": "1", "name": "Centro de Documentaci\u00f3n Francisco Gamoneda", "opening_hours": "Mo-Fr 08:30-14:30", "start_date": "1921", "wheelchair": "no", "wikidata": "Q129267654"}}, {"type": "node", "id": 10978448654, "lat": 19.4350886, "lon": -99.1344148, "tags": {"amenity": "restaurant", "name": "Bisquets Obreg\u00f3n"}}, {"type": "node", "id": 11014746639, "lat": 19.4317023, "lon": -99.1339055}, {"type": "node", "id": 11014746640, "lat": 19.4317201, "lon": -99.1338888}, {"type": "node", "id": 11014746641, "lat": 19.4317084, "lon": -99.1337832}, {"type": "node", "id": 11014746642, "lat": 19.4316871, "lon": -99.1337676}, {"type": "node", "id": 11014746643, "lat": 19.4315313, "lon": -99.1337869}, {"type": "node", "id": 11014746644, "lat": 19.4315145, "lon": -99.1338072}, {"type": "node", "id": 11014746645, "lat": 19.4315255, "lon": -99.1339071}, {"type": "node", "id": 11014746646, "lat": 19.4315461, "lon": -99.1339214}, {"type": "node", "id": 11014746647, "lat": 19.4317323, "lon": -99.1341771}, {"type": "node", "id": 11014746648, "lat": 19.4317493, "lon": -99.134154}, {"type": "node", "id": 11014746649, "lat": 19.4317386, "lon": -99.134057}, {"type": "node", "id": 11014746650, "lat": 19.4317199, "lon": -99.134044}, {"type": "node", "id": 11014746651, "lat": 19.4315617, "lon": -99.1340626}, {"type": "node", "id": 11014746652, "lat": 19.4315446, "lon": -99.1340807}, {"type": "node", "id": 11014746653, "lat": 19.4315553, "lon": -99.134178}, {"type": "node", "id": 11014746654, "lat": 19.4315764, "lon": -99.1341964}, {"type": "node", "id": 11016336310, "lat": 19.4346351, "lon": -99.1325115, "tags": {"amenity": "fountain"}}, {"type": "node", "id": 11016336311, "lat": 19.4325385, "lon": -99.1316234, "tags": {"amenity": "fountain", "name": "Fuente del Pegaso"}}, {"type": "node", "id": 11016336328, "lat": 19.4318759, "lon": -99.1343278}, {"type": "node", "id": 11016336335, "lat": 19.4317845, "lon": -99.1335991}, {"type": "node", "id": 11017027599, "lat": 19.4301346, "lon": -99.1347811, "tags": {"amenity": "ice_cream", "brand": "Nutrisa", "brand:wikidata": "Q113204689", "name": "Nutrisa"}}, {"type": "node", "id": 11120978326, "lat": 19.4340215, "lon": -99.1356835, "tags": {"amenity": "fast_food", "check_date": "2023-08-06", "name": "Jugos Canada"}}, {"type": "node", "id": 11129035488, "lat": 19.4337759, "lon": -99.1342948, "tags": {"amenity": "toilets", "fee": "yes"}}, {"type": "node", "id": 11223728167, "lat": 19.4321091, "lon": -99.1349742, "tags": {"access": "customers", "amenity": "parking_entrance", "entrance": "yes", "parking": "multi-storey"}}, {"type": "node", "id": 11276685677, "lat": 19.4315652, "lon": -99.1342868}, {"type": "node", "id": 11276685678, "lat": 19.4315298, "lon": -99.1342922}, {"type": "node", "id": 11276685679, "lat": 19.4314022, "lon": -99.1337707}, {"type": "node", "id": 11276685680, "lat": 19.4313713, "lon": -99.1337753}, {"type": "node", "id": 11276685681, "lat": 19.4314592, "lon": -99.1341953}, {"type": "node", "id": 11276685682, "lat": 19.4313757, "lon": -99.134051}, {"type": "node", "id": 11276685685, "lat": 19.4314267, "lon": -99.1342002}, {"type": "node", "id": 11276685686, "lat": 19.431406, "lon": -99.1340464}, {"type": "node", "id": 11276685687, "lat": 19.4314649, "lon": -99.1342397}, {"type": "node", "id": 11277904929, "lat": 19.4317358, "lon": -99.1335233}, {"type": "node", "id": 11277904930, "lat": 19.4317115, "lon": -99.1335534}, {"type": "node", "id": 11277904931, "lat": 19.4312555, "lon": -99.1336129}, {"type": "node", "id": 11277904932, "lat": 19.4312179, "lon": -99.1335969}, {"type": "node", "id": 11278072429, "lat": 19.4317247, "lon": -99.1334248}, {"type": "node", "id": 11278072430, "lat": 19.4316949, "lon": -99.1334052}, {"type": "node", "id": 11278072431, "lat": 19.4313845, "lon": -99.1334445}, {"type": "node", "id": 11278072432, "lat": 19.4313704, "lon": -99.1334688}, {"type": "node", "id": 11278142990, "lat": 19.4312056, "lon": -99.1324961}, {"type": "node", "id": 11278142991, "lat": 19.4311969, "lon": -99.1324306}, {"type": "node", "id": 11278142992, "lat": 19.4311469, "lon": -99.1325049}, {"type": "node", "id": 11278142993, "lat": 19.4311382, "lon": -99.1324394}, {"type": "node", "id": 11390823867, "lat": 19.4302881, "lon": -99.1343897, "tags": {"amenity": "atm", "branch": "CDMX Centro", "cash_in": "yes", "cash_out": "yes", "cash_withdrawal": "yes", "check_date": "2023-12-02", "currency:MXN": "yes", "currency:XBT": "yes", "indoor": "yes", "level": "2", "manufacturer": "General Bytes", "name": "BTM Hostel Casa Pepe", "note": "Dentro del Hostal 2\u00ba piso.", "opening_hours": "Mo-Su 08:00-23:00", "operator": "BTM", "payment:cash": "yes", "payment:lightning": "no", "payment:lightning_contactless": "no", "payment:onchain": "yes", "start_date": "2023-03-22", "url": "https://coinatmradar.com/bitcoin_atm/63748/bitcoin-atm-general-bytes-mexico-city-hostal-casa-pepe-centro-cdmx/", "website": "https://www.btm.mx/cdmx"}}, {"type": "node", "id": 12514915972, "lat": 19.4342537, "lon": -99.1316327, "tags": {"access": "yes", "amenity": "toilets", "charge": "9 MXN", "fee": "yes", "female": "yes", "male": "yes", "toilets:disposal": "flush"}}, {"type": "node", "id": 12539619702, "lat": 19.4346389, "lon": -99.1354749, "tags": {"addr:street": "Callej\u00f3n de la Cazuela", "amenity": "restaurant", "cuisine": "mexican", "name": "Comida La Abuela", "self_service": "no"}}, {"type": "way", "id": 158032455, "nodes": [1702714547, 1702714545, 11016336335, 1702714538, 11276685680, 11276685679, 11276685681, 11276685685, 11276685686, 11276685682, 2265912440, 11276685687, 2265912438, 11276685678, 11276685677, 1702714539, 11016336328, 1702714547]}, {"type": "way", "id": 217316707, "nodes": [2265908631, 2265908630, 2265908629, 2265908628, 2265908631]}, {"type": "way", "id": 217317507, "nodes": [2265912539, 2265912537, 5117969384, 2265912540, 2265912538, 2265912539], "tags": {"amenity": "place_of_worship", "building": "yes", "denomination": "roman_catholic", "name": "Templo de San Bernardo", "religion": "christian"}}, {"type": "way", "id": 217324317, "nodes": [2265970423, 2267012591, 2267012595, 2267012594, 2267013466, 2267013457, 2267012592, 2267012590, 2265970423], "tags": {"addr:city": "Ciudad de M\u00e9xico", "addr:housenumber": "76", "addr:postcode": "06000", "addr:street": "Calle Rep\u00fablica de El Salvador", "amenity": "place_of_worship", "building": "yes", "denomination": "roman_catholic", "name": "San Agust\u00edn", "religion": "christian"}}, {"type": "way", "id": 217435395, "nodes": [2267013451, 2267013455, 2267013461, 2267013457, 2267013466, 2267013454, 2267013469, 2267012595, 2267012591, 2267013459, 5117651155, 5117651158, 2267013464, 2267013451], "tags": {"amenity": "parking", "building": "yes", "parking": "multi-storey"}}, {"type": "way", "id": 276671945, "nodes": [2812623128, 2812623129, 2812623130, 5117940774, 1869866670, 2265907842, 2812623128], "tags": {"addr:city": "Ciudad de M\u00e9xico", "addr:housenumber": "18", "addr:postcode": "06010", "addr:street": "Rep\u00fablica de Guatemala", "amenity": "arts_centre", "building": "yes", "name": "Centro Cultural de Espa\u00f1a en M\u00e9xico", "phone": "01 55 5521 1925", "website": "http://ccemx.org/", "wheelchair": "limited", "wikidata": "Q5062814", "wikimedia_commons": "Category:Centro Cultural de Espa\u00f1a en M\u00e9xico", "wikipedia": "es:Centro Cultural de Espa\u00f1a en M\u00e9xico"}}, {"type": "way", "id": 371495606, "nodes": [3750607671, 3750607672, 3750607668, 5117762014, 3750607663, 3750607673, 3750607660, 3750607674, 3750607675, 3750607676, 3750607671], "tags": {"amenity": "parking", "parking": "street_side"}}, {"type": "way", "id": 464560116, "nodes": [10709967366, 4596567518, 4596567517, 10709967367, 10709967366], "tags": {"amenity": "library", "building": "yes", "name": "Fondo Hist\u00f3rico Antonio Ortiz Mena"}}, {"type": "way", "id": 618043862, "nodes": [5842051975, 5842051976, 5842051977, 5842051978, 5842051975]}, {"type": "way", "id": 618043863, "nodes": [5842051979, 5842051980, 5842051981, 5842051982, 5842051979]}, {"type": "way", "id": 618043864, "nodes": [5842051983, 5842051984, 5842052285, 5842052286, 5842051983]}, {"type": "way", "id": 618043865, "nodes": [5842052287, 5842052288, 5842052289, 5842052290, 5842052287]}, {"type": "way", "id": 862852010, "nodes": [8034246587, 8034279797, 8034783385, 8034277594, 8034246497, 9651137016, 8034246588, 8034246589, 8034246590, 8034246498, 8034246591, 8034246499, 8034277695, 8034277696, 8034783185, 8034277595, 8034246592, 8034277596, 8034277697, 8034279890, 8034279605, 8034279798, 8034277698, 8034279799, 8034279800, 8034279606, 8034279607, 8034279688, 8034277597, 8034277699, 8034277700, 8034246593, 8034246502, 8034277598, 8034279689, 8034277599, 8034279801, 8034277701, 8034279891, 8034280086, 8034279690, 8034266585, 8034279802, 8034266685, 8034246595, 8034246506, 8034279691, 8034277702, 8034280087, 8034279803, 8034277600, 8034279804, 8034277703, 8034279805, 8034246395, 8034246596, 8038219317, 8038219340, 8038219318, 8038203693, 8038219320, 8038219321, 8038219499, 8038219323, 8038219324, 8038219500, 8038219325, 8038219888, 8038219327, 8038219328, 8034246687, 8034246597, 8034246598, 8034246396, 8034246397, 8034246398, 8034246399, 8038219314, 8034309295, 8034246599, 8034246508, 8034246509, 8034246510, 8034246600, 8034246511, 8038219501, 8038219502, 8034246400, 8034246601, 8034246512, 8034246602, 8034246603, 8034246604, 8034246688, 8034246513, 8034246689, 8034246401, 8034246514, 8034246605, 8034246606, 8034277601, 8034279608, 8034279806, 8034277704, 8034279807, 8034279609, 8034279610, 9651233319, 8034246402, 8034426632, 8034246886, 9651233318, 8034277602, 8034246517, 8034259486, 8034187679, 8034246609, 8034160170, 8034160169, 8034246524, 8034246692, 8034246887, 8034277706, 8034279808, 8034279611, 8034279809, 8034279810, 8034246525, 9651137014, 8034246612, 8034246526, 8034246527, 8034246528, 8034279612, 8034277603, 8034279613, 8034277604, 8034279811, 8034279614, 8034277605, 8034246594, 8034246693, 8034246530, 8034246531, 8034246532, 8034246613, 9651137015, 8034246404, 8034246505, 8034246504, 8034246394, 8034246393, 8034246533, 8034187660, 8034187677, 8034246535, 8034246546, 8034187676, 8038261106, 8038818689, 8144945329, 8038260994, 8038819386, 8038260995, 8038417203, 8034187670, 9651229327, 8038273101, 9651141828, 8038273486, 8038261103, 8038261104, 8038260993, 8038261105, 8038273104, 8034514087, 8041534875, 8034514194, 8038351456, 8038273106, 8038273091, 8038282985, 8038261097, 9651141829, 8038272988, 8038261098, 8038273090, 8038273285, 8038273087, 8038351455, 8038417202, 8038261093, 8038260986, 8038351454, 9651233320, 9651233317, 8034246587], "tags": {"amenity": "place_of_worship", "building": "church", "building:levels": "2", "building:levels:underground": "1", "denomination": "catholic", "description": "La Catedral Metropolitana de la Asunci\u00f3n de la Sant\u00edsima Virgen Mar\u00eda a los cielos de la Ciudad de M\u00e9xico es la sede de la Arquidi\u00f3cesis Primada de M\u00e9xico. Se inicio su construcci\u00f3n en 1570.", "height": "67", "historic": "building", "indoor": "level", "level": "0", "name": "Catedral Metropolitana de la Ciudad de M\u00e9xico", "religion": "christian", "wall": "yes", "wheelchair": "limited", "wikidata": "Q610961", "wikimedia_commons": "File:Zocalo cathedral.jpg", "wikipedia": "es:Catedral Metropolitana de la Ciudad de M\u00e9xico"}}, {"type": "way", "id": 977925640, "nodes": [5117220125, 5117220124, 9048766696, 9048766697, 5117220125], "tags": {"amenity": "place_of_worship", "building": "yes", "denomination": "greek_catholic", "name": "Porta C\u00e6li", "religion": "christian"}}, {"type": "way", "id": 977925641, "nodes": [5117220206, 9048766700, 9048766699, 9048766698, 5117220206], "tags": {"amenity": "place_of_worship", "building": "yes", "denomination": "greek_catholic", "name": "Nuestra Se\u00f1ora de Balvanera", "religion": "christian"}}, {"type": "way", "id": 1163740446, "nodes": [10822915405, 10822915406, 10822915407, 10822915414, 10822915408, 10822915409, 10822894604, 10822894603, 10822915410, 10822915405], "tags": {"amenity": "parking", "parking": "multi-storey"}}, {"type": "way", "id": 1168336948, "nodes": [10865710908, 10865710909, 10865710910, 10865710911, 10865710912, 10865710913, 10865710914, 10865711009, 10865710915, 10865710916, 10865710931, 10865710932, 10865710917, 10865710918, 10865710919, 10865710908], "tags": {"amenity": "parking", "building": "yes", "parking": "multi-storey"}}, {"type": "way", "id": 1185813522, "nodes": [11014746639, 11014746640, 11014746641, 11014746642, 11014746643, 11014746644, 11014746645, 11014746646, 11014746639]}, {"type": "way", "id": 1185813523, "nodes": [11014746647, 11014746648, 11014746649, 11014746650, 11014746651, 11014746652, 11014746653, 11014746654, 11014746647]}, {"type": "way", "id": 1217150950, "nodes": [11277904932, 11277904929, 11277904930, 11277904931, 11277904932], "tags": {"amenity": "parking", "orientation": "parallel", "parking": "street_side"}}, {"type": "way", "id": 1217175331, "nodes": [11278072429, 11278072432, 11278072431, 11278072430, 11278072429], "tags": {"amenity": "parking", "parking": "street_side", "surface": "asphalt"}}, {"type": "way", "id": 1217180071, "nodes": [11278142992, 11278142990, 11278142991, 11278142993, 11278142992], "tags": {"amenity": "fountain"}}, {"type": "relation", "id": 8545653, "members": [{"type": "way", "ref": 217316707, "role": "outer"}, {"type": "way", "ref": 618043865, "role": "inner"}, {"type": "way", "ref": 618043862, "role": "inner"}, {"type": "way", "ref": 618043863, "role": "inner"}, {"type": "way", "ref": 618043864, "role": "inner"}], "tags": {"amenity": "courthouse", "building": "yes", "name": "Suprema Corte de Justicia de la Naci\u00f3n", "type": "multipolygon"}}, {"type": "relation", "id": 16031597, "members": [{"type": "way", "ref": 158032455, "role": "outer"}, {"type": "way", "ref": 1185813523, "role": "inner"}, {"type": "way", "ref": 1185813522, "role": "inner"}], "tags": {"addr:city": "Ciudad de M\u00e9xico", "addr:housenumber": "2", "addr:neighbourhood": "Colonia Centro", "addr:postcode": "06000", "addr:street": "Plaza de la Constituci\u00f3n", "alt_name": "Ex-Palacio del Ayuntamiento", "amenity": "townhall", "building": "government", "check_date": "2024-08-31", "name": "Antiguo Palacio del Ayuntamiento", "smoking": "no", "townhall:type": "city", "type": "multipolygon", "wikidata": "Q130950", "wikimedia_commons": "Category:Antiguo Palacio del Ayuntamiento", "wikipedia": "es:Antiguo Palacio del Ayuntamiento"}}]}